{"type": "FeatureCollection", "features": [ {"type": "Feature", "properties": {"norad_id": 66910, "name": "1998-067XW", "group": "last-30-days", "lat": -7.376233119117225, "lon": 60.669440612763516, "alt_km": 406.4620209057275, "timestamp": "2025-12-27T23:26:36.074324+00:00", "meta": {"OBJECT_NAME": "1998-067XW", "OBJECT_ID": "1998-067XW", "EPOCH": "2025-12-27T11:08:00.617856", "MEAN_MOTION": 15.53557016, "ECCENTRICITY": 0.0003698, "INCLINATION": 51.6304, "RA_OF_ASC_NODE": 69.1129, "ARG_OF_PERICENTER": 290.9058, "MEAN_ANOMALY": 69.1536, "EPHEMERIS_TYPE": 0, "CLASSIFICATION_TYPE": "U", "NORAD_CAT_ID": 66910, "ELEMENT_SET_NO": 999, "REV_AT_EPOCH": 390, "BSTAR": 0.0010574, "MEAN_MOTION_DOT": 0.00068686, "MEAN_MOTION_DDOT": 0}, "tle": {"line1": "1 66910U 98067XW  25361.46389604  .00068686  00000+0  10574-2 0  9991", "line2": "2 66910  51.6304  69.1129 0003698 290.9058  69.1536 15.53557016  3900"}}, "geometry": {"type": "Point", "coordinates": [60.669440612763516, -7.376233119117225]}}, {"type": "Feature", "properties": {"norad_id": 66911, "name": "1998-067XX", "group": "last-30-days", "lat": 13.84283619103472, "lon": 77.75894671296214, "alt_km": 402.5870080206523, "timestamp": "2025-12-27T23:26:36.074339+00:00", "meta": {"OBJECT_NAME": "1998-067XX", "OBJECT_ID": "1998-067XX", "EPOCH": "2025-12-27T09:28:42.532608", "MEAN_MOTION": 15.54137727, "ECCENTRICITY": 0.0003462, "INCLINATION": 51.6308, "RA_OF_ASC_NODE": 69.4034, "ARG_OF_PERICENTER": 299.6786, "MEAN_ANOMALY": 60.3859, "EPHEMERIS_TYPE": 0, "CLASSIFICATION_TYPE": "U", "NORAD_CAT_ID": 66911, "ELEMENT_SET_NO": 999, "REV_AT_EPOCH": 388, "BSTAR": 0.0012426, "MEAN_MOTION_DOT": 0.0008268, "MEAN_MOTION_DDOT": 0}, "tle": {"line1": "1 66911U 98067XX  25361.39493672  .00082680  00000+0  12426-2 0  9993", "line2": "2 66911  51.6308  69.4034 0003462 299.6786  60.3859 15.54137727  3888"}}, "geometry": {"type": "Point", "coordinates": [77.75894671296214, 13.84283619103472]}}, {"type": "Feature", "properties": {"norad_id": 66912, "name": "1998-067XY", "group": "last-30-days", "lat": -47.34641093661184, "lon": 7.37053922815616, "alt_km": 410.9671931910798, "timestamp": "2025-12-27T23:26:36.074349+00:00", "meta": {"OBJECT_NAME": "1998-067XY", "OBJECT_ID": "1998-067XY", "EPOCH": "2025-12-27T05:12:20.649888", "MEAN_MOTION": 15.52574078, "ECCENTRICITY": 0.0003872, "INCLINATION": 51.6314, "RA_OF_ASC_NODE": 70.4653, "ARG_OF_PERICENTER": 305.7746, "MEAN_ANOMALY": 54.2884, "EPHEMERIS_TYPE": 0, "CLASSIFICATION_TYPE": "U", "NORAD_CAT_ID": 66912, "ELEMENT_SET_NO": 999, "REV_AT_EPOCH": 385, "BSTAR": 0.0008769, "MEAN_MOTION_DOT": 0.00054785, "MEAN_MOTION_DDOT": 0}, "tle": {"line1": "1 66912U 98067XY  25361.21690567  .00054785  00000+0  87690-3 0  9998", "line2": "2 66912  51.6314  70.4653 0003872 305.7746  54.2884 15.52574078  3854"}}, "geometry": {"type": "Point", "coordinates": [7.37053922815616, -47.34641093661184]}}, {"type": "Feature", "properties": {"norad_id": 66913, "name": "2025-284A", "group": "last-30-days", "lat": 24.428145847186332, "lon": -73.75165027735557, "alt_km": 538.4882359538215, "timestamp": "2025-12-27T23:26:36.074359+00:00", "meta": {"OBJECT_NAME": "2025-284A", "OBJECT_ID": "2025-284A", "EPOCH": "2025-12-23T02:34:46.438752", "MEAN_MOTION": 15.08893564, "ECCENTRICITY": 0.0013475, "INCLINATION": 80.4035, "RA_OF_ASC_NODE": 116.7336, "ARG_OF_PERICENTER": 259.6514, "MEAN_ANOMALY": 100.3189, "EPHEMERIS_TYPE": 0, "CLASSIFICATION_TYPE": "U", "NORAD_CAT_ID": 66913, "ELEMENT_SET_NO": 999, "REV_AT_EPOCH": 269, "BSTAR": 0.00055263602, "MEAN_MOTION_DOT": 8.748e-05, "MEAN_MOTION_DDOT": 0}, "tle": {"line1": "1 66913U 25284A   25357.10748193  .00008748  00000+0  55264-3 0  9992", "line2": "2 66913  80.4035 116.7336 0013475 259.6514 100.3189 15.08893564  2694"}}, "geometry": {"type": "Point", "coordinates": [-73.75165027735557, 24.428145847186332]}}, {"type": "Feature", "properties": {"norad_id": 66914, "name": "2025-284B", "group": "last-30-days", "lat": 2.314352649706813, "lon": -69.94139146983163, "alt_km": 505.7170173264394, "timestamp": "2025-12-27T23:26:36.074369+00:00", "meta": {"OBJECT_NAME": "2025-284B", "OBJECT_ID": "2025-284B", "EPOCH": "2025-12-16T06:51:11.417184", "MEAN_MOTION": 15.18985981, "ECCENTRICITY": 0.00081793, "INCLINATION": 80.4045, "RA_OF_ASC_NODE": 125.2713, "ARG_OF_PERICENTER": 234.9626, "MEAN_ANOMALY": 125.0834, "EPHEMERIS_TYPE": 0, "CLASSIFICATION_TYPE": "U", "NORAD_CAT_ID": 66914, "ELEMENT_SET_NO": 999, "REV_AT_EPOCH": 166, "BSTAR": 0.00038444995, "MEAN_MOTION_DOT": 8.068e-05, "MEAN_MOTION_DDOT": 0}, "tle": {"line1": "1 66914U 25284B   25350.28554881  .00008068  00000+0  38445-3 0  9991", "line2": "2 66914  80.4045 125.2713 0008179 234.9626 125.0834 15.18985981  1668"}}, "geometry": {"type": "Point", "coordinates": [-69.94139146983163, 2.314352649706813]}}, {"type": "Feature", "properties": {"norad_id": 66915, "name": "HULIANWANG DIGUI-105", "group": "last-30-days", "lat": -5.851184487505022, "lon": -119.82726356817471, "alt_km": 892.8256163488586, "timestamp": "2025-12-27T23:26:36.074379+00:00", "meta": {"OBJECT_NAME": "HULIANWANG DIGUI-105", "OBJECT_ID": "2025-285A", "EPOCH": "2025-12-27T12:17:09.797280", "MEAN_MOTION": 14.01758696, "ECCENTRICITY": 0.0006275, "INCLINATION": 50.0023, "RA_OF_ASC_NODE": 57.1247, "ARG_OF_PERICENTER": 333.8573, "MEAN_ANOMALY": 26.2013, "EPHEMERIS_TYPE": 0, "CLASSIFICATION_TYPE": "U", "NORAD_CAT_ID": 66915, "ELEMENT_SET_NO": 999, "REV_AT_EPOCH": 298, "BSTAR": 0.00013672, "MEAN_MOTION_DOT": 5.8e-07, "MEAN_MOTION_DDOT": 0}, "tle": {"line1": "1 66915U 25285A   25361.51191895  .00000058  00000+0  13672-3 0  9999", "line2": "2 66915  50.0023  57.1247 0006275 333.8573  26.2013 14.01758696  2987"}}, "geometry": {"type": "Point", "coordinates": [-119.82726356817471, -5.851184487505022]}}, {"type": "Feature", "properties": {"norad_id": 66916, "name": "HULIANWANG DIGUI-106", "group": "last-30-days", "lat": -16.995415609934582, "lon": -109.91341194835051, "alt_km": 892.0138381634615, "timestamp": "2025-12-27T23:26:36.074391+00:00", "meta": {"OBJECT_NAME": "HULIANWANG DIGUI-106", "OBJECT_ID": "2025-285B", "EPOCH": "2025-12-27T10:30:20.131200", "MEAN_MOTION": 14.01851189, "ECCENTRICITY": 0.0004948, "INCLINATION": 50.0052, "RA_OF_ASC_NODE": 57.4085, "ARG_OF_PERICENTER": 327.7035, "MEAN_ANOMALY": 32.3565, "EPHEMERIS_TYPE": 0, "CLASSIFICATION_TYPE": "U", "NORAD_CAT_ID": 66916, "ELEMENT_SET_NO": 999, "REV_AT_EPOCH": 297, "BSTAR": 0.00013439, "MEAN_MOTION_DOT": 5.5e-07, "MEAN_MOTION_DDOT": 0}, "tle": {"line1": "1 66916U 25285B   25361.43773300  .00000055  00000+0  13439-3 0  9996", "line2": "2 66916  50.0052  57.4085 0004948 327.7035  32.3565 14.01851189  2973"}}, "geometry": {"type": "Point", "coordinates": [-109.91341194835051, -16.995415609934582]}}, {"type": "Feature", "properties": {"norad_id": 66917, "name": "HULIANWANG DIGUI-107", "group": "last-30-days", "lat": -23.985590385684013, "lon": -102.87813666614106, "alt_km": 892.3135168542158, "timestamp": "2025-12-27T23:26:36.074401+00:00", "meta": {"OBJECT_NAME": "HULIANWANG DIGUI-107", "OBJECT_ID": "2025-285C", "EPOCH": "2025-12-27T12:10:18.056352", "MEAN_MOTION": 14.0197238, "ECCENTRICITY": 0.0005409, "INCLINATION": 49.9996, "RA_OF_ASC_NODE": 57.0932, "ARG_OF_PERICENTER": 335.837, "MEAN_ANOMALY": 24.2279, "EPHEMERIS_TYPE": 0, "CLASSIFICATION_TYPE": "U", "NORAD_CAT_ID": 66917, "ELEMENT_SET_NO": 999, "REV_AT_EPOCH": 298, "BSTAR": 0.00019435, "MEAN_MOTION_DOT": 1.47e-06, "MEAN_MOTION_DDOT": 0}, "tle": {"line1": "1 66917U 25285C   25361.50715343  .00000147  00000+0  19435-3 0  9992", "line2": "2 66917  49.9996  57.0932 0005409 335.8370  24.2279 14.01972380  2980"}}, "geometry": {"type": "Point", "coordinates": [-102.87813666614106, -23.985590385684013]}}, {"type": "Feature", "properties": {"norad_id": 66918, "name": "HULIANWANG DIGUI-108", "group": "last-30-days", "lat": -26.416917019028677, "lon": -100.16017704683394, "alt_km": 891.4592917037762, "timestamp": "2025-12-27T23:26:36.074411+00:00", "meta": {"OBJECT_NAME": "HULIANWANG DIGUI-108", "OBJECT_ID": "2025-285D", "EPOCH": "2025-12-27T12:09:22.165920", "MEAN_MOTION": 14.02080542, "ECCENTRICITY": 0.0004556, "INCLINATION": 50.005, "RA_OF_ASC_NODE": 57.1032, "ARG_OF_PERICENTER": 332.9216, "MEAN_ANOMALY": 27.145, "EPHEMERIS_TYPE": 0, "CLASSIFICATION_TYPE": "U", "NORAD_CAT_ID": 66918, "ELEMENT_SET_NO": 999, "REV_AT_EPOCH": 298, "BSTAR": 5.4473e-05, "MEAN_MOTION_DOT": -6.7e-07, "MEAN_MOTION_DDOT": 0}, "tle": {"line1": "1 66918U 25285D   25361.50650655 -.00000067  00000+0  54473-4 0  9991", "line2": "2 66918  50.0050  57.1032 0004556 332.9216  27.1450 14.02080542  2980"}}, "geometry": {"type": "Point", "coordinates": [-100.16017704683394, -26.416917019028677]}}, {"type": "Feature", "properties": {"norad_id": 66919, "name": "HULIANWANG DIGUI-109", "group": "last-30-days", "lat": -33.53442631448799, "lon": -91.01929390440921, "alt_km": 891.8420299550517, "timestamp": "2025-12-27T23:26:36.074421+00:00", "meta": {"OBJECT_NAME": "HULIANWANG DIGUI-109", "OBJECT_ID": "2025-285E", "EPOCH": "2025-12-27T12:06:25.095168", "MEAN_MOTION": 14.02265731, "ECCENTRICITY": 0.0006013, "INCLINATION": 50.0072, "RA_OF_ASC_NODE": 57.0984, "ARG_OF_PERICENTER": 344.0294, "MEAN_ANOMALY": 16.042, "EPHEMERIS_TYPE": 0, "CLASSIFICATION_TYPE": "U", "NORAD_CAT_ID": 66919, "ELEMENT_SET_NO": 999, "REV_AT_EPOCH": 298, "BSTAR": 0.00032095, "MEAN_MOTION_DOT": 3.44e-06, "MEAN_MOTION_DDOT": 0}, "tle": {"line1": "1 66919U 25285E   25361.50445712  .00000344  00000+0  32095-3 0  9990", "line2": "2 66919  50.0072  57.0984 0006013 344.0294  16.0420 14.02265731  2989"}}, "geometry": {"type": "Point", "coordinates": [-91.01929390440921, -33.53442631448799]}}]}